[{"OBJECT_NAME":"STARLINK-3055","OBJECT_ID":"2021-082H","EPOCH":"2026-03-09T22:44:47.834304","MEAN_MOTION":14.97523817,"ECCENTRICITY":0.00024398,"INCLINATION":69.9982,"RA_OF_ASC_NODE":274.5904,"ARG_OF_PERICENTER":272.3196,"MEAN_ANOMALY":87.7683,"EPHEMERIS_TYPE":0,"CLASSIFICATION_TYPE":"U","NORAD_CAT_ID":49137,"ELEMENT_SET_NO":999,"REV_AT_EPOCH":24649,"BSTAR":-3.6006416e-5,"MEAN_MOTION_DOT":-5.13e-6,"MEAN_MOTION_DDOT":0},{"OBJECT_NAME":"SAUDISAT 1A (SO-41)","OBJECT_ID":"2000-057A","EPOCH":"2026-03-09T22:39:31.129056","MEAN_MOTION":14.92876682,"ECCENTRICITY":0.00361512,"INCLINATION":64.5511,"RA_OF_ASC_NODE":249.3562,"ARG_OF_PERICENTER":314.8741,"MEAN_ANOMALY":44.9435,"EPHEMERIS_TYPE":0,"CLASSIFICATION_TYPE":"U","NORAD_CAT_ID":26545,"ELEMENT_SET_NO":999,"REV_AT_EPOCH":37821,"BSTAR":0.0002077791,"MEAN_MOTION_DOT":2.024e-5,"MEAN_MOTION_DDOT":0}]
